NORAD_CAT_ID,OBJECT_NAME,OBJECT_TYPE,EPOCH,MEAN_MOTION,ECCENTRICITY,INCLINATION,RA_OF_ASC_NODE,ARG_OF_PERICENTER,MEAN_ANOMALY,BSTAR,MEAN_MOTION_DOT,MEAN_MOTION_DDOT,TLE_LINE0,TLE_LINE1,TLE_LINE2,SEMIMAJOR_AXIS,PERIOD,APOGEE,PERIGEE,DECAYED
52699.0,STARLINK-3987,PAYLOAD,2024-01-25 07:01:39,15.08847668,0.0002417,53.221,15.55,58.4721,301.6507,9.9341e-05,1.293e-05,0.0,0 STARLINK-3987,1 52699U 22053AV  24025.29281445  .00001293  00000-0  99341-4 0  9996,2 52699  53.2210  15.5500 0002417  58.4721 301.6507 15.08847668 94337,6917.857,95.437,541.394,538.05,0.0
52699.0,STARLINK-3987,PAYLOAD,2024-01-26 03:41:40,15.0883617,0.0001704,53.2206,11.6878,70.5751,289.5426,2.7265e-06,-2.45e-06,0.0,0 STARLINK-3987,1 52699U 22053AV  24026.15394293 -.00000245  00000-0  27265-5 0  9992,2 52699  53.2206  11.6878 0001704  70.5751 289.5426 15.08836170 94030,6917.892,95.438,540.936,538.578,0.0
52699.0,STARLINK-3987,PAYLOAD,2024-01-26 05:17:03,15.08836962,0.0001937,53.2207,11.3893,74.7074,285.4132,1.5865e-05,-3.6e-07,0.0,0 STARLINK-3987,1 52699U 22053AV  24026.22018323 -.00000036  00000-0  15865-4 0  9997,2 52699  53.2207  11.3893 0001937  74.7074 285.4132 15.08836962 94473,6917.89,95.438,541.095,538.415,0.0
52699.0,STARLINK-3987,PAYLOAD,2024-01-27 03:32:26,15.08848012,0.0001555,53.22,7.2292,104.4689,255.6476,4.0065e-05,3.5e-06,0.0,0 STARLINK-3987,1 52699U 22053AV  24027.14753325  .00000350  00000-0  40065-4 0  9995,2 52699  53.2200   7.2292 0001555 104.4689 255.6476 15.08848012 94189,6917.856,95.437,540.797,538.645,0.0
52699.0,STARLINK-3987,PAYLOAD,2024-01-27 08:18:35,15.08850545,0.0001716,53.2205,6.33,110.4419,249.6757,0.00010268,1.347e-05,0.0,0 STARLINK-3987,1 52699U 22053AV  24027.34624918  .00001347  00000-0  10268-3 0  9990,2 52699  53.2205   6.3300 0001716 110.4419 249.6757 15.08850545 94641,6917.848,95.437,540.9,538.526,0.0
52699.0,STARLINK-3987,PAYLOAD,2024-01-27 22:37:04,15.08837685,0.0001623,53.2203,3.6489,120.9842,239.131,3.9592e-05,3.42e-06,0.0,0 STARLINK-3987,1 52699U 22053AV  24027.94241865  .00000342  00000-0  39592-4 0  9998,2 52699  53.2203   3.6489 0001623 120.9842 239.1310 15.08837685 94739,6917.887,95.438,540.875,538.63,0.0
52699.0,STARLINK-3987,PAYLOAD,2024-01-28 04:58:37,15.08841997,0.0001493,53.2198,2.4616,99.8621,260.254,7.8373e-05,9.6e-06,0.0,0 STARLINK-3987,1 52699U 22053AV  24028.20737651  .00000960  00000-0  78373-4 0  9997,2 52699  53.2198   2.4616 0001493  99.8621 260.2540 15.08841997 94343,6917.874,95.437,540.772,538.706,0.0
52699.0,STARLINK-3987,PAYLOAD,2024-01-28 08:09:23,15.08841382,0.000164,53.2202,1.8723,115.1466,244.9696,7.1594e-05,8.52e-06,0.0,0 STARLINK-3987,1 52699U 22053AV  24028.33985712  .00000852  00000-0  71594-4 0  9992,2 52699  53.2202   1.8723 0001640 115.1466 244.9696 15.08841382 94792,6917.876,95.437,540.876,538.607,0.0
52699.0,STARLINK-3987,PAYLOAD,2024-01-29 08:00:10,15.08844959,0.0002069,53.2202,357.4104,128.0254,232.0925,-1.1838e-05,-4.77e-06,0.0,0 STARLINK-3987,1 52699U 22053AV  24029.33345745 -.00000477  00000-0 -11838-4 0  9999,2 52699  53.2202 357.4104 0002069 128.0254 232.0925 15.08844959 94515,6917.865,95.437,541.162,538.299,0.0
52699.0,STARLINK-3987,PAYLOAD,2024-01-29 22:18:39,15.08838295,0.0001392,53.2189,354.7344,96.8822,263.2328,6.1735e-05,6.95e-06,0.0,0 STARLINK-3987,1 52699U 22053AV  24029.92962216  .00000695  00000-0  61735-4 0  9993,2 52699  53.2189 354.7344 0001392  96.8822 263.2328 15.08838295 95033,6917.886,95.438,540.714,538.788,0.0
52699.0,STARLINK-3987,PAYLOAD,2024-01-30 06:15:34,15.08845969,0.0001403,53.2188,353.2475,93.684,266.4312,0.00012136,1.644e-05,0.0,0 STARLINK-3987,1 52699U 22053AV  24030.26081566  .00001644  00000-0  12136-3 0  9997,2 52699  53.2188 353.2475 0001403  93.6840 266.4312 15.08845969 95088,6917.862,95.437,540.698,538.757,0.0
52699.0,STARLINK-3987,PAYLOAD,2024-01-31 02:55:35,15.08841996,0.0001647,53.2201,349.385,70.8473,289.2698,1.1204e-05,-1.1e-06,0.0,0 STARLINK-3987,1 52699U 22053AV  24031.12194430 -.00000110  00000-0  11204-4 0  9992,2 52699  53.2201 349.3850 0001647  70.8473 289.2698 15.08841996 94788,6917.874,95.437,540.879,538.6,0.0
52699.0,STARLINK-3987,PAYLOAD,2024-01-31 04:30:58,15.08845349,0.0001576,53.2197,349.0895,75.1776,284.9391,1.0043e-05,-1.28e-06,0.0,0 STARLINK-3987,1 52699U 22053AV  24031.18818208 -.00000128  00000-0  10043-4 0  9993,2 52699  53.2197 349.0895 0001576  75.1776 284.9391 15.08845349 95221,6917.864,95.437,540.819,538.639,0.0
52699.0,STARLINK-3987,PAYLOAD,2024-02-01 04:21:46,15.08837843,0.000167,53.2193,344.6275,70.1941,289.9231,4.9505e-05,5e-06,0.0,0 STARLINK-3987,1 52699U 22053AV  24032.18178643  .00000500  00000-0  49505-4 0  9994,2 52699  53.2193 344.6275 0001670  70.1941 289.9231 15.08837843 94940,6917.887,95.438,540.907,538.597,0.0
52699.0,STARLINK-3987,PAYLOAD,2024-02-01 20:15:37,15.08839455,0.0001835,53.218,341.6571,67.9301,292.1886,3.2702e-05,2.32e-06,0.0,0 STARLINK-3987,1 52699U 22053AV  24032.84418747  .00000232  00000-0  32702-4 0  9992,2 52699  53.2180 341.6571 0001835  67.9301 292.1886 15.08839455 95471,6917.882,95.438,541.016,538.478,0.0
52699.0,STARLINK-3987,PAYLOAD,2024-02-02 04:12:33,15.08842323,0.0001872,53.219,340.17,68.1178,292.0013,5.1757e-05,5.36e-06,0.0,0 STARLINK-3987,1 52699U 22053AV  24033.17538535  .00000536  00000-0  51757-4 0  9995,2 52699  53.2190 340.1700 0001872  68.1178 292.0013 15.08842323 95521,6917.873,95.437,541.033,538.443,0.0
52699.0,STARLINK-3987,PAYLOAD,2024-02-03 02:27:57,15.08840439,0.0001859,53.219,336.0071,71.1945,288.9248,7.732e-05,9.43e-06,0.0,0 STARLINK-3987,1 52699U 22053AV  24034.10274527  .00000943  00000-0  77320-4 0  9993,2 52699  53.2190 336.0071 0001859  71.1945 288.9248 15.08840439 95235,6917.879,95.438,541.03,538.458,0.0
52699.0,STARLINK-3987,PAYLOAD,2024-02-03 05:38:42,15.08847032,0.0001482,53.2179,335.4082,98.8874,261.2286,8.6737e-05,1.093e-05,0.0,0 STARLINK-3987,1 52699U 22053AV  24034.23521859  .00001093  00000-0  86737-4 0  9999,2 52699  53.2179 335.4082 0001482  98.8874 261.2286 15.08847032 95687,6917.859,95.437,540.749,538.699,0.0
52699.0,STARLINK-3987,PAYLOAD,2024-02-04 02:18:44,15.08843021,0.0001569,53.2191,331.5383,117.2075,242.9077,-3.6989e-05,-8.77e-06,0.0,0 STARLINK-3987,1 52699U 22053AV  24035.09634544 -.00000877  00000-0 -36989-4 0  9995,2 52699  53.2191 331.5383 0001569 117.2075 242.9077 15.08843021 95382,6917.871,95.437,540.822,538.651,0.0
52699.0,STARLINK-3987,PAYLOAD,2024-02-04 05:29:30,15.08844147,0.0001426,53.2188,330.9476,98.2021,261.9133,3.0353e-05,1.95e-06,0.0,0 STARLINK-3987,1 52699U 22053AV  24035.22882352  .00000195  00000-0  30353-4 0  9992,2 52699  53.2188 330.9476 0001426  98.2021 261.9133 15.08844147 95839,6917.868,95.437,540.719,538.746,0.0
52699.0,STARLINK-3987,PAYLOAD,2024-02-04 19:47:57,15.08851979,0.0001317,53.2191,328.2715,107.2115,252.9021,0.00010086,1.318e-05,0.0,0 STARLINK-3987,1 52699U 22053AV  24035.82497431  .00001318  00000-0  10086-3 0  9996,2 52699  53.2191 328.2715 0001317 107.2115 252.9021 15.08851979 95492,6917.844,95.437,540.62,538.798,0.0
52699.0,STARLINK-3987,PAYLOAD,2024-02-04 22:58:43,15.08860851,0.0001373,53.2188,327.6776,98.2194,261.8954,9.2122e-05,1.179e-05,0.0,0 STARLINK-3987,1 52699U 22053AV  24035.95744903  .00001179  00000-0  92122-4 0  9996,2 52699  53.2188 327.6776 0001373  98.2194 261.8954 15.08860851 95949,6917.817,95.436,540.631,538.732,0.0
52699.0,STARLINK-3987,PAYLOAD,2024-02-05 02:09:29,15.08868645,0.0001376,53.2189,327.0824,97.9308,262.1841,0.00010562,1.395e-05,0.0,0 STARLINK-3987,1 52699U 22053AV  24036.08992314  .00001395  00000-0  10562-3 0  9999,2 52699  53.2189 327.0824 0001376  97.9308 262.1841 15.08868645 95537,6917.793,95.436,540.61,538.706,0.0
52699.0,STARLINK-3987,PAYLOAD,2024-02-05 11:41:48,15.08854253,0.0001728,53.2186,325.2977,74.8022,285.3161,9.6834e-05,1.254e-05,0.0,0 STARLINK-3987,1 52699U 22053AV  24036.48737007  .00001254  00000-0  96834-4 0  9990,2 52699  53.2186 325.2977 0001728  74.8022 285.3161 15.08854253 95599,6917.837,95.437,540.897,538.506,0.0
52699.0,STARLINK-3987,PAYLOAD,2024-02-05 22:49:32,15.08825798,0.0001244,53.2186,323.219,83.9234,276.19,-0.00010371,-1.937e-05,0.0,0 STARLINK-3987,1 52699U 22053AV  24036.95107599 -.00001937  00000-0 -10371-3 0  9990,2 52699  53.2186 323.2190 0001244  83.9234 276.1900 15.08825798 96090,6917.924,95.438,540.649,538.928,0.0
52699.0,STARLINK-3987,PAYLOAD,2024-02-06 02:00:18,15.08830792,0.0001339,53.2187,322.6278,90.0217,270.0928,-4.8723e-05,-1.063e-05,0.0,0 STARLINK-3987,1 52699U 22053AV  24037.08355256 -.00001063  00000-0 -48723-4 0  9993,2 52699  53.2187 322.6278 0001339  90.0217 270.0928 15.08830792 95683,6917.909,95.438,540.7,538.847,0.0
52699.0,STARLINK-3987,PAYLOAD,2024-02-06 22:40:18,15.08851643,0.0001389,53.2194,318.7619,92.9543,267.1609,5.5943e-06,-1.99e-06,0.0,0 STARLINK-3987,1 52699U 22053AV  24037.94465809 -.00000199  00000-0  55943-5 0  9995,2 52699  53.2194 318.7619 0001389  92.9543 267.1609 15.08851643 96248,6917.845,95.437,540.671,538.749,0.0
52699.0,STARLINK-3987,PAYLOAD,2024-02-07 01:51:04,15.08849019,0.0001465,53.2175,318.164,93.7346,266.3814,0.0001678,2.384e-05,0.0,0 STARLINK-3987,1 52699U 22053AV  24038.07713667  .00002384  00000-0  16780-3 0  9999,2 52699  53.2175 318.1640 0001465  93.7346 266.3814 15.08849019 95837,6917.853,95.437,540.731,538.704,0.0
52699.0,STARLINK-3987,PAYLOAD,2024-02-07 11:23:23,15.08839065,0.0001344,53.2173,316.3786,94.6378,265.4768,6.8226e-05,7.98e-06,0.0,0 STARLINK-3987,1 52699U 22053AV  24038.47458088  .00000798  00000-0  68226-4 0  9996,2 52699  53.2173 316.3786 0001344  94.6378 265.4768 15.08839065 95891,6917.883,95.438,540.678,538.818,0.0
52699.0,STARLINK-3987,PAYLOAD,2024-02-08 01:41:52,15.08829451,0.0001527,53.2178,313.7034,93.2411,266.8755,3.7582e-05,3.1e-06,0.0,0 STARLINK-3987,1 52699U 22053AV  24039.07075155  .00000310  00000-0  37582-4 0  9994,2 52699  53.2178 313.7034 0001527  93.2411 266.8755 15.08829451 95988,6917.913,95.438,540.834,538.721,0.0
